38858,GSAT0104 (GALILEO-FM4),2012,874.89,700.0,-,55.53,Inactive,1,MEO,French Guiana,ESA,Commercial,Navigation (Global or Regional Positioning),Soyuz,1 38858U 12055B   25042.54689446 -.00000019  00000+0  00000+0 0  9993,2 38858  55.5308 115.6831 0000761 269.5264  90.5214  1.64591971 76572,1.64591971,7.61e-05,MEO
37846,GSAT0101 (GALILEO-PFM),2011,844.7,700.0,+,57.11,Active,1,MEO,French Guiana,ESA,Commercial,Navigation (Global or Regional Positioning),Soyuz,1 37846U 11060A   25060.06079426 -.00000084  00000+0  00000+0 0  9994,2 37846  57.1140 354.5841 0004142 343.0067  16.9840  1.70475553 83187,1.70475553,0.0004142,MEO
37847,GSAT0102 (GALILEO-FM2),2011,844.7,700.0,+,57.11,Active,1,MEO,French Guiana,ESA,Commercial,Navigation (Global or Regional Positioning),Soyuz,1 37847U 11060B   25062.52667051 -.00000092  00000+0  00000+0 0  9994,2 37847  57.1119 354.5177 0005351 337.7414 140.9033  1.70475674 83103,1.70475674,0.0005351,MEO
38857,GSAT0103 (GALILEO-FM3),2012,844.71,700.0,+,55.53,Active,1,MEO,French Guiana,ESA,Commercial,Navigation (Global or Regional Positioning),Soyuz,1 38857U 12055A   25068.89931063  .00000009  00000+0  00000+0 0  9991,2 38857  55.5332 114.2984 0005523 276.0723  83.9411  1.70473496 77097,1.70473496,0.0005523,MEO
40128,GSAT0201 (GALILEO 5),2014,776.2,733.0,B,49.38,Active,1,MEO,French Guiana,ESA,Commercial,Navigation (Global or Regional Positioning),Soyuz,1 40128U 14050A   25067.73181928 -.00000023  00000+0  00000+0 0  9998,2 40128  49.3795 292.3929 1621932 161.4093 205.2969  1.85519735 69684,1.85519735,0.1621932,MEO
40129,GSAT0202 (GALILEO 6),2014,776.19,733.0,B,49.39,Active,1,MEO,French Guiana,ESA,Commercial,Navigation (Global or Regional Positioning),Soyuz,1 40129U 14050B   25069.06706973 -.00000024  00000+0  00000+0 0  9991,2 40129  49.3943 291.4191 1621784 162.2419 204.1770  1.85520424 71876,1.85520424,0.1621784,MEO
40544,GSAT0203 (GALILEO 7),2015,844.7,723.0,+,56.9,Active,1,MEO,French Guiana,ESA,Commercial,Navigation (Global or Regional Positioning),Soyuz,1 40544U 15017A   25067.46523640 -.00000111  00000+0  00000+0 0  9993,2 40544  56.9045 354.2817 0003568 302.6179  57.3498  1.70475275 61920,1.70475275,0.0003568,MEO
40889,GSAT0205 (GALILEO 9),2015,844.71,723.0,+,55.11,Active,1,MEO,French Guiana,ESA,Commercial,Navigation (Global or Regional Positioning),Soyuz,1 40889U 15045A   25069.24815466  .00000015  00000+0  00000+0 0  9996,2 40889  55.1072 234.4168 0005894  48.5783 311.4289  1.70473683 59102,1.70473683,0.0005894,MEO
40890,GSAT0206 (GALILEO 10),2015,844.71,723.0,+,55.11,Active,1,MEO,French Guiana,ESA,Commercial,Navigation (Global or Regional Positioning),Soyuz,1 40890U 15045B   25066.53586933  .00000039  00000+0  00000+0 0  9997,2 40890  55.1073 234.4869 0003843  51.1409 308.8604  1.70473594 59089,1.70473594,0.0003843,MEO
41174,GSAT0209 (GALILEO 12),2015,844.7,723.0,+,55.55,Active,1,MEO,French Guiana,ESA,Commercial,Navigation (Global or Regional Positioning),Soyuz,1 41174U 15079A   25067.87782287  .00000002  00000+0  00000+0 0  9998,2 41174  55.5525 114.0382 0004622 313.5685  46.4648  1.70474678 56849,1.70474678,0.0004622,MEO
41175,GSAT0208 (GALILEO 11),2015,844.7,723.0,+,55.55,Active,1,MEO,French Guiana,ESA,Commercial,Navigation (Global or Regional Positioning),Soyuz,1 41175U 15079B   25067.51117690  .00000001  00000+0  00000+0 0  9999,2 41175  55.5510 114.0456 0003889 311.9280  48.1091  1.70474563 57253,1.70474563,0.0003889,MEO
41549,GSAT0211 (GALILEO 14),2016,844.7,723.0,+,55.26,Active,1,MEO,French Guiana,ESA,Commercial,Navigation (Global or Regional Positioning),Soyuz,1 41549U 16030A   25068.80794390  .00000019  00000+0  00000+0 0  9992,2 41549  55.2557 234.4640 0003348  25.4886 334.4871  1.70473727 54735,1.70473727,0.0003348,MEO
