[
    {
        "OBJECT_NAME": "GSAT0101 (GALILEO-PFM)",
        "OBJECT_ID": "2011-060A",
        "EPOCH": "2025-03-01T01:27:32.624064",
        "MEAN_MOTION": 1.70475553,
        "ECCENTRICITY": 0.0004142,
        "INCLINATION": 57.114,
        "RA_OF_ASC_NODE": 354.5841,
        "ARG_OF_PERICENTER": 343.0067,
        "MEAN_ANOMALY": 16.984,
        "EPHEMERIS_TYPE": 0,
        "CLASSIFICATION_TYPE": "U",
        "NORAD_CAT_ID": 37846,
        "ELEMENT_SET_NO": 999,
        "REV_AT_EPOCH": 8318,
        "BSTAR": 0,
        "MEAN_MOTION_DOT": -8.4e-07,
        "MEAN_MOTION_DDOT": 0
    },
    {
        "OBJECT_NAME": "GSAT0102 (GALILEO-FM2)",
        "OBJECT_ID": "2011-060B",
        "EPOCH": "2025-03-03T12:38:24.332064",
        "MEAN_MOTION": 1.70475674,
        "ECCENTRICITY": 0.0005351,
        "INCLINATION": 57.1119,
        "RA_OF_ASC_NODE": 354.5177,
        "ARG_OF_PERICENTER": 337.7414,
        "MEAN_ANOMALY": 140.9033,
        "EPHEMERIS_TYPE": 0,
        "CLASSIFICATION_TYPE": "U",
        "NORAD_CAT_ID": 37847,
        "ELEMENT_SET_NO": 999,
        "REV_AT_EPOCH": 8310,
        "BSTAR": 0,
        "MEAN_MOTION_DOT": -9.2e-07,
        "MEAN_MOTION_DDOT": 0
    },
    {
        "OBJECT_NAME": "GSAT0103 (GALILEO-FM3)",
        "OBJECT_ID": "2012-055A",
        "EPOCH": "2025-03-09T21:35:00.438432",
        "MEAN_MOTION": 1.70473496,
        "ECCENTRICITY": 0.0005523,
        "INCLINATION": 55.5332,
        "RA_OF_ASC_NODE": 114.2984,
        "ARG_OF_PERICENTER": 276.0723,
        "MEAN_ANOMALY": 83.9411,
        "EPHEMERIS_TYPE": 0,
        "CLASSIFICATION_TYPE": "U",
        "NORAD_CAT_ID": 38857,
        "ELEMENT_SET_NO": 999,
        "REV_AT_EPOCH": 7709,
        "BSTAR": 0,
        "MEAN_MOTION_DOT": 9e-08,
        "MEAN_MOTION_DDOT": 0
    },
    {
        "OBJECT_NAME": "GSAT0104 (GALILEO-FM4)",
        "OBJECT_ID": "2012-055B",
        "EPOCH": "2025-02-11T13:07:31.681344",
        "MEAN_MOTION": 1.64591971,
        "ECCENTRICITY": 7.61e-05,
        "INCLINATION": 55.5308,
        "RA_OF_ASC_NODE": 115.6831,
        "ARG_OF_PERICENTER": 269.5264,
        "MEAN_ANOMALY": 90.5214,
        "EPHEMERIS_TYPE": 0,
        "CLASSIFICATION_TYPE": "U",
        "NORAD_CAT_ID": 38858,
        "ELEMENT_SET_NO": 999,
        "REV_AT_EPOCH": 7657,
        "BSTAR": 0,
        "MEAN_MOTION_DOT": -1.9e-07,
        "MEAN_MOTION_DDOT": 0
    },
    {
        "OBJECT_NAME": "GSAT0201 (GALILEO 5)",
        "OBJECT_ID": "2014-050A",
        "EPOCH": "2025-03-08T17:33:49.185792",
        "MEAN_MOTION": 1.85519735,
        "ECCENTRICITY": 0.1621932,
        "INCLINATION": 49.3795,
        "RA_OF_ASC_NODE": 292.3929,
        "ARG_OF_PERICENTER": 161.4093,
        "MEAN_ANOMALY": 205.2969,
        "EPHEMERIS_TYPE": 0,
        "CLASSIFICATION_TYPE": "U",
        "NORAD_CAT_ID": 40128,
        "ELEMENT_SET_NO": 999,
        "REV_AT_EPOCH": 6968,
        "BSTAR": 0,
        "MEAN_MOTION_DOT": -2.3e-07,
        "MEAN_MOTION_DDOT": 0
    },
    {
        "OBJECT_NAME": "GSAT0202 (GALILEO 6)",
        "OBJECT_ID": "2014-050B",
        "EPOCH": "2025-03-10T01:36:34.824672",
        "MEAN_MOTION": 1.85520424,
        "ECCENTRICITY": 0.1621784,
        "INCLINATION": 49.3943,
        "RA_OF_ASC_NODE": 291.4191,
        "ARG_OF_PERICENTER": 162.2419,
        "MEAN_ANOMALY": 204.177,
        "EPHEMERIS_TYPE": 0,
        "CLASSIFICATION_TYPE": "U",
        "NORAD_CAT_ID": 40129,
        "ELEMENT_SET_NO": 999,
        "REV_AT_EPOCH": 7187,
        "BSTAR": 0,
        "MEAN_MOTION_DOT": -2.4e-07,
        "MEAN_MOTION_DDOT": 0
    },
    {
        "OBJECT_NAME": "GSAT0203 (GALILEO 7)",
        "OBJECT_ID": "2015-017A",
        "EPOCH": "2025-03-08T11:09:56.424960",
        "MEAN_MOTION": 1.70475275,
        "ECCENTRICITY": 0.0003568,
        "INCLINATION": 56.9045,
        "RA_OF_ASC_NODE": 354.2817,
        "ARG_OF_PERICENTER": 302.6179,
        "MEAN_ANOMALY": 57.3498,
        "EPHEMERIS_TYPE": 0,
        "CLASSIFICATION_TYPE": "U",
        "NORAD_CAT_ID": 40544,
        "ELEMENT_SET_NO": 999,
        "REV_AT_EPOCH": 6192,
        "BSTAR": 0,
        "MEAN_MOTION_DOT": -1.11e-06,
        "MEAN_MOTION_DDOT": 0
    },
    {
        "OBJECT_NAME": "GSAT0205 (GALILEO 9)",
        "OBJECT_ID": "2015-045A",
        "EPOCH": "2025-03-10T05:57:20.562624",
        "MEAN_MOTION": 1.70473683,
        "ECCENTRICITY": 0.0005894,
        "INCLINATION": 55.1072,
        "RA_OF_ASC_NODE": 234.4168,
        "ARG_OF_PERICENTER": 48.5783,
        "MEAN_ANOMALY": 311.4289,
        "EPHEMERIS_TYPE": 0,
        "CLASSIFICATION_TYPE": "U",
        "NORAD_CAT_ID": 40889,
        "ELEMENT_SET_NO": 999,
        "REV_AT_EPOCH": 5910,
        "BSTAR": 0,
        "MEAN_MOTION_DOT": 1.5e-07,
        "MEAN_MOTION_DDOT": 0
    },
    {
        "OBJECT_NAME": "GSAT0206 (GALILEO 10)",
        "OBJECT_ID": "2015-045B",
        "EPOCH": "2025-03-07T12:51:39.110112",
        "MEAN_MOTION": 1.70473594,
        "ECCENTRICITY": 0.0003843,
        "INCLINATION": 55.1073,
        "RA_OF_ASC_NODE": 234.4869,
        "ARG_OF_PERICENTER": 51.1409,
        "MEAN_ANOMALY": 308.8604,
        "EPHEMERIS_TYPE": 0,
        "CLASSIFICATION_TYPE": "U",
        "NORAD_CAT_ID": 40890,
        "ELEMENT_SET_NO": 999,
        "REV_AT_EPOCH": 5908,
        "BSTAR": 0,
        "MEAN_MOTION_DOT": 3.9e-07,
        "MEAN_MOTION_DDOT": 0
    },
    {
        "OBJECT_NAME": "GSAT0209 (GALILEO 12)",
        "OBJECT_ID": "2015-079A",
        "EPOCH": "2025-03-08T21:04:03.895968",
        "MEAN_MOTION": 1.70474678,
        "ECCENTRICITY": 0.0004622,
        "INCLINATION": 55.5525,
        "RA_OF_ASC_NODE": 114.0382,
        "ARG_OF_PERICENTER": 313.5685,
        "MEAN_ANOMALY": 46.4648,
        "EPHEMERIS_TYPE": 0,
        "CLASSIFICATION_TYPE": "U",
        "NORAD_CAT_ID": 41174,
        "ELEMENT_SET_NO": 999,
        "REV_AT_EPOCH": 5684,
        "BSTAR": 0,
        "MEAN_MOTION_DOT": 2e-08,
        "MEAN_MOTION_DDOT": 0
    },
    {
        "OBJECT_NAME": "GSAT0208 (GALILEO 11)",
        "OBJECT_ID": "2015-079B",
        "EPOCH": "2025-03-08T12:16:05.684160",
        "MEAN_MOTION": 1.70474563,
        "ECCENTRICITY": 0.0003889,
        "INCLINATION": 55.551,
        "RA_OF_ASC_NODE": 114.0456,
        "ARG_OF_PERICENTER": 311.928,
        "MEAN_ANOMALY": 48.1091,
        "EPHEMERIS_TYPE": 0,
        "CLASSIFICATION_TYPE": "U",
        "NORAD_CAT_ID": 41175,
        "ELEMENT_SET_NO": 999,
        "REV_AT_EPOCH": 5725,
        "BSTAR": 0,
        "MEAN_MOTION_DOT": 1e-08,
        "MEAN_MOTION_DDOT": 0
    },
    {
        "OBJECT_NAME": "GSAT0211 (GALILEO 14)",
        "OBJECT_ID": "2016-030A",
        "EPOCH": "2025-03-09T19:23:26.352960",
        "MEAN_MOTION": 1.70473727,
        "ECCENTRICITY": 0.0003348,
        "INCLINATION": 55.2557,
        "RA_OF_ASC_NODE": 234.464,
        "ARG_OF_PERICENTER": 25.4886,
        "MEAN_ANOMALY": 334.4871,
        "EPHEMERIS_TYPE": 0,
        "CLASSIFICATION_TYPE": "U",
        "NORAD_CAT_ID": 41549,
        "ELEMENT_SET_NO": 999,
        "REV_AT_EPOCH": 5473,
        "BSTAR": 0,
        "MEAN_MOTION_DOT": 1.9e-07,
        "MEAN_MOTION_DDOT": 0
    }
]